[{"OBJECT_NAME":"STARLINK-34921","OBJECT_ID":"2025-224M","EPOCH":"2026-03-09T05:55:00.064128","MEAN_MOTION":15.30189284,"ECCENTRICITY":0.00011851,"INCLINATION":53.162,"RA_OF_ASC_NODE":13.6012,"ARG_OF_PERICENTER":69.962,"MEAN_ANOMALY":290.1508,"EPHEMERIS_TYPE":0,"CLASSIFICATION_TYPE":"U","NORAD_CAT_ID":65893,"ELEMENT_SET_NO":999,"REV_AT_EPOCH":2480,"BSTAR":0.0013171961,"MEAN_MOTION_DOT":0.00038843,"MEAN_MOTION_DDOT":0},{"OBJECT_NAME":"SL-3 R\/B","OBJECT_ID":"1982-079B","EPOCH":"2026-03-09T22:18:18.158976","MEAN_MOTION":15.24805533,"ECCENTRICITY":0.00250364,"INCLINATION":81.1481,"RA_OF_ASC_NODE":192.7939,"ARG_OF_PERICENTER":164.0597,"MEAN_ANOMALY":196.143,"EPHEMERIS_TYPE":0,"CLASSIFICATION_TYPE":"U","NORAD_CAT_ID":13403,"ELEMENT_SET_NO":999,"REV_AT_EPOCH":37773,"BSTAR":0.00032485557,"MEAN_MOTION_DOT":8.157e-5,"MEAN_MOTION_DDOT":0}]
